HIERARCHY
ROOT Hips
{
	OFFSET 0.00 1.50 -0.25
	CHANNELS 6 Xposition Yposition Zposition Zrotation Xrotation Yrotation
	JOINT Spine
	{
		OFFSET 0 10 0
		CHANNELS 3 Zrotation Xrotation Yrotation
		JOINT Head
		{
			OFFSET 0 5.5 1
			CHANNELS 3 Yrotation Xrotation Zrotation
			End Site
			{
				OFFSET 0 3 0
			}
		}
	}

	JOINT LeftLeg
	{
		OFFSET 2 -1 0
		CHANNELS 4 Yposition Xrotation Yrotation Zrotation
		END SITE
		{
			OFFSET 0 -8 0
		}
	}
}
MOTION
Frames: 3
Frame Time: 0.0333333
0 1 2 10 20 30 5 -5 15 90 0 0 0.5 45 -30 60
1.5 1 2.5 -10 0 180 0 0 0 0 90 0 -0.25 12.5 0 -7
  3 2 1 0 0 0 30 60 90 -45 45 -45 0 0 0 0   
